0 BREEZE-M DEB
1 37204U 08011J   13279.22863179  .00000109  00000-0  68256-3 0  6623
2 37204 048.8124 184.0524 6442541 251.4597 333.3405 03.06512337 33285
0 BREEZE-M DEB
1 37204U 08011J   13279.92065005 -.00000115  00000-0 -37802-2 0  6634
2 37204 048.8123 183.8080 6442897 251.6749 016.9178 03.06515823 33300
0 BREEZE-M DEB
1 37204U 08011J   13287.70681808 -.00000185  00000-0 -44417-2 0  6642
2 37204 048.8085 181.0626 6444162 254.0781 328.6803 03.06508935 33543
